[
    {
        "Altitude(m)": 624790.8071792444,
        "Argument of Periapsis(deg)": 0.0,
        "Eccentricity": 0.0,
        "Inclination(deg)": 60.0,
        "Latitude(deg)": -59.14715232639909,
        "Longitude(deg)": 1.0347939609267243,
        "Mean Anomaly(deg)": -81.8182,
        "RAAN(deg)": 175.0,
        "Satellite Name": "Test1 787",
        "Satellite Number": 787,
        "Semi-Major Axis(m)": 6980739.136638005,
        "Time(s)": 0
    },
    {
        "Altitude(m)": 624737.4615526581,
        "Argument of Periapsis(deg)": 0.00010418945913296404,
        "Eccentricity": 0.0,
        "Inclination(deg)": 60.0,
        "Latitude(deg)": -58.99460526303429,
        "Longitude(deg)": 2.1542960192423104,
        "Mean Anomaly(deg)": -81.19809385453816,
        "RAAN(deg)": 174.99957995086024,
        "Satellite Name": "Test1 787",
        "Satellite Number": 787,
        "Semi-Major Axis(m)": 6980739.136638005,
        "Time(s)": 10
    }
]